HIMAWARI-8              
1 40267U 14060A   24279.82479767 -.00000264  00000+0  00000+0 0  9995
2 40267   0.0193 187.8928 0000517  24.5444 240.1338  1.00275207 36546
